
CANX-5                  
1 40056U 14034D   24347.16856597  .00002474  00000+0  33948-3 0  9990
2 40056  98.3779 189.3831 0013070 347.9150  12.1745 14.79328079553668
UKUBE-1                 
1 40074U 14037F   24347.60027744  .00011860  00000+0  96203-3 0  9998
2 40074  98.3604 289.3304 0002673 122.2276 237.9205 14.99835880565465
BRITE-PL2 (HEWELIUSZ)   
1 40119U 14049B   24347.46965260  .00003077  00000+0  31666-3 0  9992
2 40119  97.8874  86.6269 0015994 134.2789 225.9744 14.90955142559124
AEROCUBE 5C             
1 40965U 15058B   24347.56045207  .00005493  00000+0  47267-3 0  9991
2 40965  64.7670 172.8489 0186701 254.7944 103.2454 14.85874708283513
AEROCUBE 7              
1 40966U 15058C   24347.51290812  .00008270  00000+0  66906-3 0  9998
2 40966  64.7638 164.8315 0180217 254.4724 103.6427 14.88468425283619
FOX-1A (AO-85)          
1 40967U 15058D   24347.55601402  .00005135  00000+0  45290-3 0  9994
2 40967  64.7750 187.3841 0184373 250.4577 107.6542 14.85340653 31452
SINOD-D 1               
1 40968U 15058E   24347.51149052  .00007962  00000+0  65634-3 0  9993
2 40968  64.7748 178.2629 0176834 249.4443 108.7618 14.88230098 34314
SNAP-3 ALICE            
1 40970U 15058G   24347.39757882  .00035643  00000+0  19053-2 0  9998
2 40970  64.7663 122.8128 0133394 248.0617 110.6280 15.07496117 32531
LMRST-SAT               
1 40971U 15058H   24347.53976784  .00005142  00000+0  45254-3 0  9993
2 40971  64.7748 183.0121 0185873 251.8503 106.2290 14.85237216 31453
SNAP-3 EDDIE            
1 40972U 15058J   24347.42604959  .00031681  00000+0  16724-2 0  9990
2 40972  64.7635 115.7271 0133631 249.1134 109.5638 15.07937606 34643
PROPCUBE 3              
1 40973U 15058K   24347.52331169  .00007085  00000+0  58700-3 0  9994
2 40973  64.7681 169.0264 0181798 253.3183 104.7904 14.87562773 32521
BISONSAT                
1 40974U 15058L   24346.78055685  .00020634  00000+0  13429-2 0  9991
2 40974  64.7639 138.0152 0154664 251.4313 106.9949 14.98618736 32305
SNAP-3 JIMI             
1 40975U 15058M   24346.82671754  .00012434  00000+0  93043-3 0  9998
2 40975  64.7660 156.0139 0170499 252.5611 105.6801 14.92126186 31480
PROPCUBE 1 (FLORA)      
1 40976U 15058N   24347.61176003  .00004653  00000+0  42698-3 0  9998
2 40976  64.7744 199.2425 0184894 253.2121 104.8633 14.83961032 34247
SINOD-D 3               
1 40977U 15058P   24347.58602820  .00006290  00000+0  54141-3 0  9991
2 40977  64.7722 190.5906 0177252 252.4341 105.7337 14.86839359 32515
HORYU-4                 
1 41340U 16012D   24347.11126154  .00022716  00000+0  85889-3 0  9991
2 41340  31.0004 248.8349 0009037 347.5515  12.4903 15.25742515485259
RAVAN                   
1 41849U 16067B   24347.49308598  .00022659  00000+0  99472-3 0  9999
2 41849  98.0566 176.6182 0011233 137.0141 223.1973 15.21902485443027
CELTEE 1                
1 41850U 16067C   24347.26581024  .00009524  00000+0  57548-3 0  9997
2 41850  98.1055 166.6035 0000954   9.3305 350.7941 15.10917803442276
OPTICUBE 04             
1 41851U 16067D   24347.40222174  .00004185  00000+0  29667-3 0  9991
2 41851  98.0848 160.2961 0017281 174.0488 186.0946 15.05264512442021
AEROCUBE 8D             
1 41852U 16067E   24347.06759372  .00011597  00000+0  66029-3 0  9997
2 41852  98.1100 166.7140 0003756 223.3334 136.7600 15.13004040442244
AEROCUBE 8C             
1 41853U 16067F   24347.21512607  .00010626  00000+0  60447-3 0  9993
2 41853  98.0926 165.0276 0007154 150.0212 210.1428 15.13045630442255
PROMETHEUS 2-1          
1 41854U 16067G   24347.27498932  .00034635  00000+0  11918-2 0  9998
2 41854  98.0926 176.1870 0008884 159.5437 200.6159 15.29950511442832
PROMETHEUS 2-3          
1 41855U 16067H   24347.27859836  .00035165  00000+0  12134-2 0  9993
2 41855  98.0864 175.5075 0007364 170.6827 189.4549 15.29868464442835
CORVUS BC2              
1 42846U 17042X   24347.41910217  .00005248  00000+0  41930-3 0  9991
2 42846  97.3670 162.9680 0011308 173.0072 187.1312 15.00593055404142
CORVUS BC1              
1 42847U 17042Y   24347.42896276  .00006085  00000+0  48367-3 0  9992
2 42847  97.3670 163.3918 0010568 147.4156 212.7723 15.00739288404160
MIRATA                  
1 43015U 17073C   24347.58765944  .00044558  00000+0  14360-2 0  9990
2 43015  97.5674 231.7700 0131698   5.8102 354.4625 15.23955587383336
MAKERSAT 0              
1 43016U 17073D   24347.61521291  .00019189  00000+0  91909-3 0  9997
2 43016  97.5451 222.2670 0171117  36.7618 324.5202 15.06902017382706
SIRION PATHFINDER-2     
1 43759U 18099B   24347.40497601  .00007552  00000+0  51247-3 0  9996
2 43759  97.5073  38.7453 0011544  47.1715 313.0481 15.06639090329307
CORVUS BC4              
1 43767U 18099K   24347.40988168  .00006838  00000+0  47889-3 0  9991
2 43767  97.4900  35.3477 0011285  96.4979 263.7534 15.05498008329170
MOVE-II                 
1 43780U 18099Y   24347.41324306  .00051712  00000+0  16066-2 0  9998
2 43780  97.4967  50.3892 0005044  75.2649 284.9152 15.33167331330054
SPACEBEE-7              
1 43816U 18099BL  24347.12828469  .00026683  00000+0  11521-2 0  9995
2 43816  97.5256  49.6396 0008299  35.2984 324.8801 15.22452546329370
SPACEBEE-6              
1 43818U 18099BN  24347.16288070  .00280715  00000+0  26177-2 0  9990
2 43818  97.5093  60.6065 0004990 326.4699  33.6245 15.66443675330256
SHIELDS 1               
1 43850U 18104B   24346.99743251  .00025289  00000+0  48756-3 0  9991
2 43850  85.0189 161.6465 0010218 110.5174 249.7180 15.47649514333560
SONATE                  
1 44400U 19038Q   24347.27491652  .00048145  00000+0  84741-3 0  9997
2 44400  97.7123 351.2174 0011508 173.0213 187.1199 15.50242654301507
LUCKY-7                 
1 44406U 19038W   24347.51312399  .01456417  15644-2  13824-2 0  9992
2 44406  97.6817   1.1137 0005643 156.1062 204.0485 16.12304656302192
DUCHIFAT-3              
1 44854U 19089C   24347.48995286  .00032411  00000+0  11375-2 0  9992
2 44854  36.9514  37.8962 0011173 156.7176 203.4083 15.28501005275445
M2 PATHFINDER           
1 45727U 20037E   24347.42706597  .00005474  00000+0  44687-3 0  9998
2 45727  97.7763 163.3416 0010996 237.0208 122.9958 14.99787956242635
NETSAT-4                
1 46504U 20068U   24347.34086816  .00017065  00000+0  73872-3 0  9999
2 46504  97.8262 310.3612 0011213 100.7876 259.4622 15.22440177231209
NETSAT-3                
1 46505U 20068V   24347.39763988  .00014713  00000+0  65201-3 0  9991
2 46505  97.8250 309.7025 0010382 108.7502 251.4860 15.21684548231192
NETSAT-1                
1 46506U 20068W   24347.38201885  .00011954  00000+0  57995-3 0  9999
2 46506  97.8275 308.5793 0009121 118.3411 241.8743 15.18621478231118
NETSAT-2                
1 46507U 20068X   24347.36468079  .00016841  00000+0  73259-3 0  9999
2 46507  97.8254 309.9643 0008400 119.2054 241.0022 15.22301983231154
WILDTRACKCUBE-SIMBA     
1 47941U 21022K   24347.60580756  .00024647  00000+0  79683-3 0  9997
2 47941  97.4412 243.7197 0009899 230.1382 129.8990 15.32024919205675
GRBALPHA                
1 47959U 21022AD  24347.57134843  .00047263  00000+0  10642-2 0  9992
2 47959  97.4402 247.3927 0007247 204.4956 155.5948 15.43117805204734
BEESAT-8                
1 48085U 21022AP  24347.53365140  .00176118  00000+0  18412-2 0  9990
2 48085  97.4735 254.2218 0006526 134.7081 225.4710 15.63868883205384
LEDSAT                  
1 49069U 21073D   24347.16949281  .00035789  00000+0  94966-3 0  9999
2 49069  97.4170  58.3503 0014646  13.5731 346.5905 15.38108748183675
ROBUSTA-1F (MTCUBE 2)   
1 53109U 22080E   24346.83103569 -.00000003  00000+0  00000+0 0  9996
2 53109  70.1185 130.3530 0008368  49.7604 310.3787  6.42584146 56574
SITRO-AIS 5 (KATYS)     
1 57176U 23091L   24347.55845875  .00012057  00000+0  66034-3 0  9994
2 57176  97.5891  38.6305 0014839 227.2002 132.7982 15.14278872 80434
SITRO-AIS 6 (CHIRKIN)   
1 57192U 23091AC  24347.60504119  .00011034  00000+0  60458-3 0  9999
2 57192  97.5890  38.7076 0014617 226.1673 133.8351 15.14289551 80442
SITRO-AIS 8 (ANOKHIN)   
1 57193U 23091AD  24347.57848844  .00012690  00000+0  67946-3 0  9990
2 57193  97.5884  38.8846 0014390 227.3802 132.6217 15.15076437 80454
SITRO-AIS 7 (FARTUSHNIY)
1 57194U 23091AE  24347.55181255  .00011422  00000+0  62739-3 0  9992
2 57194  97.5889  38.6156 0014540 227.3820 132.6186 15.14191856 80434
SITRO-AIS 10 (BURDAEV)  
1 57199U 23091AK  24347.57029924  .00014376  00000+0  71877-3 0  9997
2 57199  97.5900  40.3764 0010140 211.3038 148.7592 15.17506445 80542
SITRO-AIS 9 (SHCHUKIN)  
1 57201U 23091AM  24347.57289080  .00014636  00000+0  73317-3 0  9992
2 57201  97.5895  40.3385 0010106 211.6090 148.4538 15.17435544 80549
SITRO-AIS 12 (SMIRENNIY)
1 57204U 23091AQ  24347.57836426  .00013991  00000+0  69717-3 0  9999
2 57204  97.5904  40.5491 0010147 205.2689 154.8049 15.17632460 80556
SITRO-AIS 11 (SHEFFER)  
1 57208U 23091AU  24347.55061965  .00014070  00000+0  69825-3 0  9998
2 57208  97.5904  40.5700 0009954 204.8120 155.2635 15.17774119 80556
VERONIKA                
1 58261U 23174F   24347.51287356  .00040378  00000+0  11269-2 0  9998
2 58261  97.4414  62.1271 0008613 332.8120  27.2672 15.36587859 60930
ROBUSTA-1E (ENSO)       
1 58470U 23185J   24347.58800198  .00029679  00000+0  84728-3 0  9996
2 58470  97.4039  53.5878 0009841  11.3440 348.8023 15.35933909 57398
SITRO-AIS 29            
1 59052U 24039B   24347.58635487  .00053976  00000+0  10605-2 0  9998
2 59052  97.4083 310.3709 0008327 315.5360  44.5220 15.47091792 43975
SITRO-AIS 30            
1 59053U 24039C   24347.54805773  .00052225  00000+0  10446-2 0  9991
2 59053  97.4082 310.2636 0008815 316.3891  43.6661 15.46575059 43952
